[{"OBJECT_NAME":"QUICK3","OBJECT_ID":"2025-135AG","EPOCH":"2026-03-09T21:40:49.946304","MEAN_MOTION":15.24606762,"ECCENTRICITY":0.00063908,"INCLINATION":97.4614,"RA_OF_ASC_NODE":185.4931,"ARG_OF_PERICENTER":144.4818,"MEAN_ANOMALY":215.6846,"EPHEMERIS_TYPE":0,"CLASSIFICATION_TYPE":"U","NORAD_CAT_ID":64558,"ELEMENT_SET_NO":999,"REV_AT_EPOCH":3971,"BSTAR":0.00070513701,"MEAN_MOTION_DOT":0.00017352,"MEAN_MOTION_DDOT":0},{"OBJECT_NAME":"COSMOS 2535 DEB","OBJECT_ID":"2019-039M","EPOCH":"2026-03-08T03:25:35.903424","MEAN_MOTION":15.28322551,"ECCENTRICITY":0.0014917,"INCLINATION":97.5619,"RA_OF_ASC_NODE":139.2722,"ARG_OF_PERICENTER":329.0964,"MEAN_ANOMALY":30.9396,"EPHEMERIS_TYPE":0,"CLASSIFICATION_TYPE":"U","NORAD_CAT_ID":44641,"ELEMENT_SET_NO":999,"REV_AT_EPOCH":35167,"BSTAR":0.0011539757,"MEAN_MOTION_DOT":0.0003196,"MEAN_MOTION_DDOT":0}]
